IRIDIUM 116             
1 43072U 17083C   24268.85642285  .00000470  00000+0  16086-3 0  9991
2 43072  86.3978 225.3887 0002297  88.4313 271.7146 14.34217141353828
IRIDIUM 130             
1 43073U 17083D   24268.82470869  .00000507  00000+0  17399-3 0  9995
2 43073  86.3986 225.6156 0002263  91.2578 268.8878 14.34216985353765
IRIDIUM 151             
1 43074U 17083E   24268.59003211  .00000424  00000+0  14450-3 0  9996
2 43074  86.3980 225.5433 0002382  81.9064 278.2402 14.34216937353759
IRIDIUM 134             
1 43075U 17083F   24268.34901748  .00000776  00000+0  26997-3 0  9991
2 43075  86.3982 225.6436 0002271  89.6098 270.5358 14.34218291353687
IRIDIUM 137             
1 43076U 17083G   24268.43147208  .00000731  00000+0  25406-3 0  9990
2 43076  86.3984 225.6889 0002799  83.8609 276.2906 14.34216301353762
IRIDIUM 141             
1 43077U 17083H   24268.42513782  .00000754  00000+0  26211-3 0  9994
2 43077  86.3979 225.5582 0002204  84.1863 275.9584 14.34217673353764
IRIDIUM 153             
1 43078U 17083J   24268.51684554  .00000744  00000+0  25844-3 0  9991
2 43078  86.4039 194.0361 0001868  70.0954 290.0443 14.34218780354884
IRIDIUM 131             
1 43079U 17083K   24268.62174364  .00000776  00000+0  26983-3 0  9997
2 43079  86.3984 225.6198 0002368  84.7314 275.4152 14.34219087353727
